[{"OBJECT_NAME":"STARLINK-3286","OBJECT_ID":"2021-125R","EPOCH":"2026-03-09T17:13:07.610016","MEAN_MOTION":15.08833644,"ECCENTRICITY":0.00013164,"INCLINATION":53.2169,"RA_OF_ASC_NODE":248.9972,"ARG_OF_PERICENTER":92.8004,"MEAN_ANOMALY":267.3138,"EPHEMERIS_TYPE":0,"CLASSIFICATION_TYPE":"U","NORAD_CAT_ID":50171,"ELEMENT_SET_NO":999,"REV_AT_EPOCH":23660,"BSTAR":4.0723672e-5,"MEAN_MOTION_DOT":3.6e-6,"MEAN_MOTION_DDOT":0},{"OBJECT_NAME":"CZ-4C R\/B","OBJECT_ID":"2018-031F","EPOCH":"2026-03-09T18:17:36.260736","MEAN_MOTION":15.22605712,"ECCENTRICITY":0.00804945,"INCLINATION":98.1311,"RA_OF_ASC_NODE":341.6719,"ARG_OF_PERICENTER":21.712,"MEAN_ANOMALY":338.7495,"EPHEMERIS_TYPE":0,"CLASSIFICATION_TYPE":"U","NORAD_CAT_ID":43264,"ELEMENT_SET_NO":999,"REV_AT_EPOCH":43612,"BSTAR":0.00044368098,"MEAN_MOTION_DOT":0.00011203,"MEAN_MOTION_DDOT":0}]
